ONEWEB-0256             
1 48974U 21060H   23243.50582367  .00000096  00000+0  21855-3 0  9999
2 48974  87.8984  71.9617 0001436  92.2031 267.9265 13.16591241105321
ONEWEB-0257             
1 48975U 21060J   23243.23561812 -.00000013  00000+0 -67196-4 0  9992
2 48975  87.8963  71.9872 0001698  96.0067 264.1257 13.16592671105242
ONEWEB-0258             
1 48976U 21060K   23243.84570025  .00000091  00000+0  20454-3 0  9995
2 48976  87.8971  71.8933 0001925  86.6265 273.5086 13.16597415105332
ONEWEB-0259             
1 48977U 21060L   23243.23139872 -.00000035  00000+0 -12540-3 0  9997
2 48977  87.8973  72.0007 0002150  86.5621 273.5756 13.16592163105289
ONEWEB-0260             
1 48978U 21060M   23243.45304499 -.00000253  00000+0 -69629-3 0  9993
2 48978  87.8993  71.9853 0001351 118.7055 241.4211 13.16597043105293
ONEWEB-0261             
1 48979U 21060N   23243.49526430  .00002188  00000+0  56862-2 0  9990
2 48979  87.9076  71.9373 0001846  94.2135 265.9207 13.16609150105356
ONEWEB-0262             
1 48980U 21060P   23243.47625888 -.00000017  00000+0 -79215-4 0  9997
2 48980  87.8980  71.9382 0002372  88.5039 271.6364 13.16590727105318
ONEWEB-0263             
1 48981U 21060Q   23243.50793659  .00000169  00000+0  40947-3 0  9999
2 48981  87.8984  71.9483 0002258  96.7700 263.3688 13.16593328105287
